{"spkid": "20279744", "covariance": {"epoch": "2457275.5", "elements": [{"label": "e", "units": null, "value": ".611635278801035", "title": "eccentricity", "name": "e", "sigma": 3.80163098916152e-08}, {"units": "au", "title": "perihelion distance", "value": ".6491161754820848", "name": "q", "sigma": 6.43115091364356e-08, "label": "q"}, {"units": "TDB", "title": "time of perihelion passage", "value": "2457360.730280416494", "sigma": 2.16883312213196e-05, "name": "tp", "label": "tp"}, {"label": "node", "units": "deg", "title": "longitude of the ascending node", "value": "263.2704415024481", "sigma": 5.93998589533661e-05, "name": "om"}, {"label": "peri", "units": "deg", "value": "85.0406126312007", "title": "argument of perihelion", "sigma": 5.87949023785036e-05, "name": "w"}, {"label": "i", "units": "deg", "title": "inclination", "value": "4.660604567227595", "sigma": 1.03511862718889e-05, "name": "i"}], "data": [["1.445239817775317E-15", "-2.444360258116847E-15", "4.137399748977843E-14", "-1.016997964472527E-13", "8.498882647948399E-14", "-1.2688482593226E-14"], ["-2.444360258116847E-15", "4.135970207405841E-15", "-8.333190988408184E-14", "1.708946262221008E-13", "-1.498548207825206E-13", "2.122967567695734E-14"], ["4.137399748977843E-14", "-8.333190988408184E-14", "4.703837111656653E-10", "1.683694115975716E-10", "7.042813841586259E-11", "-8.35082379624298E-13"], ["-1.016997964472527E-13", "1.708946262221008E-13", "1.683694115975716E-10", "3.528343243679786E-9", "-3.418956875091132E-9", "-1.510870153260623E-11"], ["8.498882647948399E-14", "-1.498548207825206E-13", "7.042813841586259E-11", "-3.418956875091132E-9", "3.456840545697773E-9", "1.751512518608155E-11"], ["-1.2688482593226E-14", "2.122967567695734E-14", "-8.35082379624298E-13", "-1.510870153260623E-11", "1.751512518608155E-11", "1.071470572353404E-10"]], "labels": ["e", "q", "tp", "node", "peri", "i"]}, "elements": [{"label": "e", "title": "eccentricity", "value": ".6109144664334102", "units": null, "name": "e", "sigma": "3.7994E-8"}, {"label": "a", "sigma": "3.9966E-9", "name": "a", "value": "1.670319863705354", "title": "semi-major axis", "units": "au"}, {"units": "au", "value": ".6498972953966714", "title": "perihelion distance", "sigma": "6.4305E-8", "name": "q", "label": "q"}, {"label": "i", "value": "4.657806691090168", "title": "inclination; angle with respect to x-y ecliptic plane", "units": "deg", "name": "i", "sigma": "1.0356E-5"}, {"label": "node", "sigma": "5.9365E-5", "name": "om", "value": "263.0182705688855", "title": "longitude of the ascending node", "units": "deg"}, {"label": "peri", "units": "deg", "title": "argument of perihelion", "value": "85.33464893730435", "sigma": "5.8779E-5", "name": "w"}, {"label": "M", "title": "mean anomaly", "value": "311.8288915391953", "units": "deg", "sigma": "9.2562E-6", "name": "ma"}, {"label": "tp", "name": "tp", "sigma": "2.0401E-5", "units": "TDB", "title": "time of perihelion passage", "value": "2461306.007184726101"}, {"label": "period", "name": "per", "sigma": "2.83E-6", "units": "d", "value": "788.4930971082297", "title": "sidereal orbital period"}, {"title": "mean motion", "value": ".4565670914815705", "units": "deg/d", "name": "n", "sigma": "1.6387E-9", "label": "n"}, {"name": "ad", "sigma": "6.4382E-9", "title": "aphelion distance", "value": "2.690742432014038", "units": "au", "label": "Q"}], "epoch": "2461200.5"}